$$SOE
2459580.500000000, A.D. 2022-Jan-01 00:00:00.0000, -4.518679451989428E+08, 4.205758398607531E+07, 1.724017812049177E+07,
2459587.500000000, A.D. 2022-Jan-08 00:00:00.0000, -4.521382924068460E+08, 3.197196755578528E+07, 1.761265134867978E+07,
2459594.500000000, A.D. 2022-Jan-15 00:00:00.0000, -4.521735329270105E+08, 2.186973172514571E+07, 1.797596489613498E+07,
2459601.500000000, A.D. 2022-Jan-22 00:00:00.0000, -4.519727859916322E+08, 1.175608812093207E+07, 1.832989528904109E+07,
2459608.500000000, A.D. 2022-Jan-29 00:00:00.0000, -4.515352718414885E+08, 1.636294598842958E+06, 1.867422180802760E+07,
2459615.500000000, A.D. 2022-Feb-05 00:00:00.0000, -4.508603158543802E+08, -8.484346660573695E+06, 1.900872675935807E+07,
2459622.500000000, A.D. 2022-Feb-12 00:00:00.0000, -4.499473505345533E+08, -1.860049219574931E+07, 1.933319546504080E+07,
2459629.500000000, A.D. 2022-Feb-19 00:00:00.0000, -4.487959166840386E+08, -2.870675908055549E+07, 1.964741628704548E+07,
2459636.500000000, A.D. 2022-Feb-26 00:00:00.0000, -4.474056650632561E+08, -3.879772623987013E+07, 1.995118074661697E+07,
2459643.500000000, A.D. 2022-Mar-05 00:00:00.0000, -4.457763583784916E+08, -4.886793588474797E+07, 2.024428367334928E+07,
2459650.500000000, A.D. 2022-Mar-12 00:00:00.0000, -4.439078733708805E+08, -5.891189513653658E+07, 2.052652335798424E+07,
2459657.500000000, A.D. 2022-Mar-19 00:00:00.0000, -4.418002029323253E+08, -6.892407781623375E+07, 2.079770170436075E+07,
2459664.500000000, A.D. 2022-Mar-26 00:00:00.0000, -4.394534582235047E+08, -7.889892640956104E+07, 2.105762437762981E+07,
2459671.500000000, A.D. 2022-Apr-02 00:00:00.0000, -4.368678707244548E+08, -8.883085426735412E+07, 2.130610093764568E+07,
2459678.500000000, A.D. 2022-Apr-09 00:00:00.0000, -4.340437939434341E+08, -9.871424803926061E+07, 2.154294493271707E+07,
2459685.500000000, A.D. 2022-Apr-16 00:00:00.0000, -4.309817044233405E+08, -1.085434696891629E+08, 2.176797397417648E+07,
2459692.500000000, A.D. 2022-Apr-23 00:00:00.0000, -4.276822033096687E+08, -1.183128570111175E+08, 2.198100999652683E+07,
2459699.500000000, A.D. 2022-Apr-30 00:00:00.0000, -4.241460203457588E+08, -1.280167248953994E+08, 2.218187969100932E+07,
2459706.500000000, A.D. 2022-May-07 00:00:00.0000, -4.203740172301506E+08, -1.376493693225119E+08, 2.237041467037608E+07,
2459713.500000000, A.D. 2022-May-14 00:00:00.0000, -4.163671889432873E+08, -1.472050710493181E+08, 2.254645148587031E+07,
2459720.500000000, A.D. 2022-May-21 00:00:00.0000, -4.121266650686044E+08, -1.566780982304885E+08, 2.270983174472856E+07,
2459727.500000000, A.D. 2022-May-28 00:00:00.0000, -4.076537115805597E+08, -1.660627089371928E+08, 2.286040229358294E+07,
2459734.500000000, A.D. 2022-Jun-04 00:00:00.0000, -4.029497328174209E+08, -1.753531538893126E+08, 2.299801541660936E+07,
2459741.500000000, A.D. 2022-Jun-11 00:00:00.0000, -3.980162734892212E+08, -1.845436794015906E+08, 2.312252903525758E+07,
2459748.500000000, A.D. 2022-Jun-18 00:00:00.0000, -3.928550206764192E+08, -1.936285305323194E+08, 2.323380690704249E+07,
2459755.500000000, A.D. 2022-Jun-25 00:00:00.0000, -3.874678057832499E+08, -2.026019544694285E+08, 2.333171881789417E+07,
2459762.500000000, A.D. 2022-Jul-02 00:00:00.0000, -3.818566063047293E+08, -2.114582042213245E+08, 2.341614075028777E+07,
2459769.500000000, A.D. 2022-Jul-09 00:00:00.0000, -3.760235470097601E+08, -2.201915424369144E+08, 2.348695500570802E+07,
2459776.500000000, A.D. 2022-Jul-16 00:00:00.0000, -3.699709005876849E+08, -2.287962442729935E+08, 2.354405037487136E+07,
2459783.500000000, A.D. 2022-Jul-23 00:00:00.0000, -3.637010899480694E+08, -2.372665992322198E+08, 2.358732256349993E+07,
2459790.500000000, A.D. 2022-Jul-30 00:00:00.0000, -3.572166920815246E+08, -2.455969153274450E+08, 2.361667459164807E+07,
2459797.500000000, A.D. 2022-Aug-06 00:00:00.0000, -3.505204398762341E+08, -2.537815249259247E+08, 2.363201688947070E+07,
2459804.500000000, A.D. 2022-Aug-13 00:00:00.0000, -3.436152227059416E+08, -2.618147895184361E+08, 2.363326739013717E+07,
2459811.500000000, A.D. 2022-Aug-20 00:00:00.0000, -3.365040873492267E+08, -2.696911039150572E+08, 2.362035172257586E+07,
2459818.500000000, A.D. 2022-Aug-27 00:00:00.0000, -3.291902391616732E+08, -2.774049005931014E+08, 2.359320343808202E+07,
2459825.500000000, A.D. 2022-Sep-03 00:00:00.0000, -3.216770432433704E+08, -2.849506543073137E+08, 2.355176423863812E+07,
2459832.500000000, A.D. 2022-Sep-10 00:00:00.0000, -3.139680255027821E+08, -2.923228869375905E+08, 2.349598420032966E+07,
2459839.500000000, A.D. 2022-Sep-17 00:00:00.0000, -3.060668735786912E+08, -2.995161725741177E+08, 2.342582198868319E+07,
2459846.500000000, A.D. 2022-Sep-24 00:00:00.0000, -2.979774375504456E+08, -3.065251428881471E+08, 2.334124505577138E+07,
2459853.500000000, A.D. 2022-Oct-01 00:00:00.0000, -2.897037301868845E+08, -3.133444928075496E+08, 2.324222979466209E+07,
2459860.500000000, A.D. 2022-Oct-08 00:00:00.0000, -2.812499263169588E+08, -3.199689859713440E+08, 2.312876165584011E+07,
2459867.500000000, A.D. 2022-Oct-15 00:00:00.0000, -2.726203622440018E+08, -3.263934587592925E+08, 2.300083540828703E+07,
2459874.500000000, A.D. 2022-Oct-22 00:00:00.0000, -2.638195373749475E+08, -3.326128245750210E+08, 2.285845560678646E+07,
2459881.500000000, A.D. 2022-Oct-29 00:00:00.0000, -2.548521155572693E+08, -3.386220809710107E+08, 2.270163682350516E+07,
2459888.500000000, A.D. 2022-Nov-05 00:00:00.0000, -2.457229240162718E+08, -3.444163168677617E+08, 2.253040367460671E+07,
2459895.500000000, A.D. 2022-Nov-12 00:00:00.0000, -2.364369518484024E+08, -3.499907185899057E+08, 2.234479092486501E+07,
2459902.500000000, A.D. 2022-Nov-19 00:00:00.0000, -2.269993487783858E+08, -3.553405756615831E+08, 2.214484365712570E+07,
2459909.500000000, A.D. 2022-Nov-26 00:00:00.0000, -2.174154239049431E+08, -3.604612867475769E+08, 2.193061744872679E+07,
2459916.500000000, A.D. 2022-Dec-03 00:00:00.0000, -2.076906442568661E+08, -3.653483657434085E+08, 2.170217853749613E+07,
2459923.500000000, A.D. 2022-Dec-10 00:00:00.0000, -1.978306331045979E+08, -3.699974479888821E+08, 2.145960397391129E+07,
2459930.500000000, A.D. 2022-Dec-17 00:00:00.0000, -1.878411679960571E+08, -3.744042966221532E+08, 2.120298175470878E+07,
2459937.500000000, A.D. 2022-Dec-24 00:00:00.0000, -1.777281784018127E+08, -3.785648091296008E+08, 2.093241092217565E+07,
2459944.500000000, A.D. 2022-Dec-31 00:00:00.0000, -1.674977426062011E+08, -3.824750239710534E+08, 2.064800160461584E+07,
2459951.500000000, A.D. 2023-Jan-07 00:00:00.0000, -1.571560837154471E+08, -3.861311263033925E+08, 2.034987506473763E+07,
2459958.500000000, A.D. 2023-Jan-14 00:00:00.0000, -1.467095667431512E+08, -3.895294522896098E+08, 2.003816397616269E+07,
2459965.500000000, A.D. 2023-Jan-21 00:00:00.0000, -1.361646974107809E+08, -3.926664951494449E+08, 1.971301272694193E+07,
2459972.500000000, A.D. 2023-Jan-28 00:00:00.0000, -1.255281189891727E+08, -3.955389131321051E+08, 1.937457739684954E+07,
2459979.500000000, A.D. 2023-Feb-04 00:00:00.0000, -1.148066073857553E+08, -3.981435363683497E+08, 1.902302567449327E+07,
2459986.500000000, A.D. 2023-Feb-11 00:00:00.0000, -1.040070662699713E+08, -4.004773727786619E+08, 1.865853686258264E+07,
2459993.500000000, A.D. 2023-Feb-18 00:00:00.0000, -9.313652229802546E+07, -4.025376138424043E+08, 1.828130190929426E+07,
2460000.500000000, A.D. 2023-Feb-25 00:00:00.0000, -8.220212017268991E+07, -4.043216403705997E+08, 1.789152342775245E+07,
2460007.500000000, A.D. 2023-Mar-04 00:00:00.0000, -7.121111743504401E+07, -4.058270282440437E+08, 1.748941569508687E+07,
2460014.500000000, A.D. 2023-Mar-11 00:00:00.0000, -6.017087895950651E+07, -4.070515540972018E+08, 1.707520462790726E+07,
2460021.500000000, A.D. 2023-Mar-18 00:00:00.0000, -4.908887110671033E+07, -4.079932009788151E+08, 1.664912772549260E+07,
2460028.500000000, A.D. 2023-Mar-25 00:00:00.0000, -3.797265533435206E+07, -4.086501640176935E+08, 1.621143395801121E+07,
2460035.500000000, A.D. 2023-Apr-01 00:00:00.0000, -2.682988084649574E+07, -4.090208556810554E+08, 1.576238359283489E+07,
2460042.500000000, A.D. 2023-Apr-08 00:00:00.0000, -1.566827690310502E+07, -4.091039093804986E+08, 1.530224811530527E+07,
2460049.500000000, A.D. 2023-Apr-15 00:00:00.0000, -4.495647134195798E+06, -4.088981825106588E+08, 1.483131036755511E+07,
2460056.500000000, A.D. 2023-Apr-22 00:00:00.0000, 6.680135942897501E+06, -4.084027619516369E+08, 1.434986448955622E+07,
2460063.500000000, A.D. 2023-Apr-29 00:00:00.0000, 1.785113892918330E+07, -4.076169697639803E+08, 1.385821559539691E+07,
2460070.500000000, A.D. 2023-May-06 00:00:00.0000, 2.900937630099272E+07, -4.065403672776222E+08, 1.335667949175867E+07,
2460077.500000000, A.D. 2023-May-13 00:00:00.0000, 4.014681892845122E+07, -4.051727584503761E+08, 1.284558245506090E+07,
2460084.500000000, A.D. 2023-May-20 00:00:00.0000, 5.125540257523847E+07, -4.035141929692913E+08, 1.232526100549319E+07,
2460091.500000000, A.D. 2023-May-27 00:00:00.0000, 6.232703655737188E+07, -4.015649691069680E+08, 1.179606165757713E+07,
2460098.500000000, A.D. 2023-Jun-03 00:00:00.0000, 7.335361260170592E+07, -3.993256362899470E+08, 1.125834064382783E+07,
2460105.500000000, A.D. 2023-Jun-10 00:00:00.0000, 8.432701391036312E+07, -3.967969973770818E+08, 1.071246360796446E+07,
2460112.500000000, A.D. 2023-Jun-17 00:00:00.0000, 9.523912450171779E+07, -3.939801106942196E+08, 1.015880525458059E+07,
2460119.500000000, A.D. 2023-Jun-24 00:00:00.0000, 1.060818391278173E+08, -3.908762917580385E+08, 9.597748930768102E+06,
2460126.500000000, A.D. 2023-Jul-01 00:00:00.0000, 1.168470739991006E+08, -3.874871138507667E+08, 9.029686184632942E+06,
2460133.500000000, A.D. 2023-Jul-08 00:00:00.0000, 1.275267766180461E+08, -3.838144066136184E+08, 8.455016521905944E+06,
2460140.500000000, A.D. 2023-Jul-15 00:00:00.0000, 1.381129334192582E+08, -3.798602554774652E+08, 7.874147246852532E+06,
2460147.500000000, A.D. 2023-Jul-22 00:00:00.0000, 1.485975787117464E+08, -3.756270029542993E+08, 7.287492980344489E+06,
$$EOE